SAR-LUPE 2              
1 31797U 07030A   26121.91105500  .00013022  00000+0  27387-3 0  9997
2 31797  98.1007 220.8469 0011717 263.7622  96.2290 15.45398556 49787
SAPPHIRE                
1 39088U 13009C   26121.94069966  .00000103  00000+0  50807-4 0  9999
2 39088  98.4250 302.4969 0011772  32.2649 327.9254 14.35227825689942
PRAETORIAN SDA_602      
1 65565U 25203A   26121.91195547  .00000250  00000+0  21304-3 0  9991
2 65565  81.3046  53.6298 0005548 329.7261  30.3575 13.84335485 32299
PRAETORIAN SDA_603      
1 65566U 25203B   26121.85173946  .00000226  00000+0  19304-3 0  9994
2 65566  81.3046  53.5689 0009124 325.7171  34.3396 13.83900872 32295
PRAETORIAN SDA_604      
1 65567U 25203C   26121.91502958  .00000032  00000+0  18441-4 0  9998
2 65567  81.3067  53.8515 0005311 338.7186  21.3748 13.83039171 32285
PRAETORIAN SDA_605      
1 65568U 25203D   26121.89332101  .00000061  00000+0  45139-4 0  9993
2 65568  81.3032  53.5801 0007722 322.7391  37.3228 13.83427355 32298
PRAETORIAN SDA_606      
1 65569U 25203E   26121.87665851  .00000086  00000+0  66900-4 0  9999
2 65569  81.3068  53.8009 0005444 327.7255  32.3567 13.83535217 32281
PRAETORIAN SDA_607      
1 65570U 25203F   26121.91234224  .00000261  00000+0  22303-3 0  9995
2 65570  81.3050  53.4982 0008328 326.5368  33.5261 13.84320927 32304
PRAETORIAN SDA_608      
1 65571U 25203G   26121.87409303  .00000062  00000+0  45235-4 0  9992
2 65571  81.3020  53.6776 0005777 336.4092  23.6798 13.83809079 32285
PRAETORIAN SDA_609      
1 65572U 25203H   26121.89476164  .00000232  00000+0  19724-3 0  9996
2 65572  81.3064  53.6544 0006526 327.9128  32.1631 13.84304680 32296
PRAETORIAN SDA_610      
1 65573U 25203J   26121.85607059  .00000034  00000+0  19830-4 0  9991
2 65573  81.3022  53.6564 0006170 331.6245  28.4575 13.83914964 32285
PRAETORIAN SDA_611      
1 65574U 25203K   26121.90998423  .00000410  00000+0  36250-3 0  9998
2 65574  81.3027  53.7318 0005499 341.5384  18.5572 13.83303257 32280
PRAETORIAN SDA_612      
1 65575U 25203L   26121.88507431  .00000168  00000+0  13838-3 0  9998
2 65575  81.3045  53.4549 0008864 325.3587  34.6992 13.85031199 32301
PRAETORIAN SDA_613      
1 65576U 25203M   26121.90102260  .00000048  00000+0  33100-4 0  9995
2 65576  81.3014  53.7062 0005402 334.0536  26.0348 13.82946878 32280
PRAETORIAN SDA_614      
1 65577U 25203N   26121.86557056  .00000077  00000+0  57835-4 0  9991
2 65577  81.3029  53.5391 0006727 325.8722  34.2002 13.84771539 32309
PRAETORIAN SDA_615      
1 65578U 25203P   26121.90327629  .00000205  00000+0  17298-3 0  9999
2 65578  81.3036  53.4382 0008577 323.6834  36.3740 13.84428829 32305
PRAETORIAN SDA_616      
1 65579U 25203Q   26121.90864992  .00000280  00000+0  24389-3 0  9991
2 65579  81.3073  53.8485 0005209 340.6202  19.4755 13.83318379 32284
PRAETORIAN SDA_617      
1 65580U 25203R   26121.85375053  .00000066  00000+0  49082-4 0  9992
2 65580  81.3050  53.7348 0007059 326.4103  33.6605 13.83197725 32287
PRAETORIAN SDA_618      
1 65581U 25203S   26121.87932387  .00000206  00000+0  17221-3 0  9999
2 65581  81.3036  53.4134 0009317 324.9371  35.1172 13.84767999 32307
PRAETORIAN SDA_619      
1 65582U 25203T   26121.88709802  .00000210  00000+0  17892-3 0  9994
2 65582  81.3059  53.6310 0007573 324.3755  35.6895 13.83937815 32923
PRAETORIAN SDA_620      
1 65583U 25203U   26121.90592429  .00000267  00000+0  23120-3 0  9996
2 65583  81.3046  53.6224 0007187 321.7097  38.3549 13.83612626 32291
PRAETORIAN SDA_621      
1 65584U 25203V   26121.88579372  .00000033  00000+0  19461-4 0  9991
2 65584  81.3035  53.5759 0006860 319.9337  40.1313 13.83793142 32298
PRAETORIAN SDA_601      
1 65585U 25203W   26121.91051154  .00000525  00000+0  46671-3 0  9997
2 65585  81.3058  53.8028 0005326 340.5284  19.5668 13.83423793 32287
